GSAT0225 (GALILEO 29)   
1 59598U 24079A   26175.75913958 -.00000038  00000+0  00000+0 0  9996
2 59598  55.1240 100.8683 0001742 297.9493 254.8080  1.70474128 13441
GSAT0227 (GALILEO 30)   
1 59600U 24079C   26174.45530327 -.00000033  00000+0  00000+0 0  9996
2 59600  55.1185 100.9033 0002419  58.0764 301.9236  1.70473918 13478
GSAT0232 (GALILEO 32)   
1 61182U 24167A   26176.63516238  .00000060  00000+0  00000+0 0  9998
2 61182  55.1829 221.0818 0006264 229.7720 243.6564  1.70474486 11024
GSAT0226 (GALILEO 31)   
1 61183U 24167B   26175.16363493  .00000050  00000+0  00000+0 0  9998
2 61183  55.1820 221.1292 0002945 231.0291 150.6225  1.70474440 10978
BEIDOU-3 M25            
1 61186U 24168B   26176.52653398 -.00000106  00000+0  00000+0 0  9992
2 61186  54.4653 301.9524 0003119 299.1636  69.9171  1.86230340 11940
BEIDOU-3 M27            
1 61187U 24168C   26174.69963936 -.00000109  00000+0  00000+0 0  9994
2 61187  54.4622 301.9985 0001470  49.4418 309.8302  1.86230327  9371
NAVSTAR 83 (USA 440)    
1 62339U 24242A   26176.06978753 -.00000106  00000+0  00000+0 0  9990
2 62339  54.8458 333.8613 0017672   4.5649 176.3126  2.00571971 11412
QZS-6 (MICHIBIKI-6)     
1 62876U 25023A   26176.60391803 -.00000223  00000+0  00000+0 0  9999
2 62876   0.0573 280.3752 0001986 187.0073 114.2719  1.00273214  5036
COSMOS 2584 [GLONASS-K2]
1 63130U 25042A   26176.11761292 -.00000068  00000+0  00000+0 0  9990
2 63130  65.0891  72.5324 0006504 227.6492 132.3305  2.13103928 10214
NAVSTAR 84 (USA 545)    
1 64202U 25116A   26176.81205126 -.00000089  00000+0  00000+0 0  9992
2 64202  55.2403  30.7831 0008280 342.5010 197.3025  2.00575516  8040
COSMOS 2596 [GLONASS-K1]
1 65590U 25206B   26175.96646456 -.00000086  00000+0  00000+0 0  9990
2 65590  64.6296 314.7142 0011009 310.6805  49.5796  2.13100978  6081
GSAT0233 (GALILEO 33)   
1 67160U 25302A   26175.09516034 -.00000035  00000+0  00000+0 0  9998
2 67160  54.3398 101.9339 0000823 209.8671 226.2605  1.70474189  3249
GSAT0234 (GALILEO 34)   
1 67162U 25302C   26171.44712830 -.00000015  00000+0  00000+0 0  9995
2 67162  54.3393 102.0369 0002889 311.1148 226.2302  1.70474042  3232
NAVSTAR 85 (USA 581)    
1 67588U 26017A   26176.17428162 -.00000068  00000+0  00000+0 0  9996
2 67588  55.0933  88.4346 0021607 258.6594 101.0992  2.00571022431772
NAVSTAR 86 (USA 585)    
1 68791U 26087A   26173.65141046  .00000058  00000+0  00000+0 0  9991
2 68791  54.9627 207.5713 0020681 106.6591  76.9843  2.00570839   940
